[{"OBJECT_NAME":"STARLINK-31641","OBJECT_ID":"2024-062A","EPOCH":"2026-03-09T20:02:38.294016","MEAN_MOTION":15.30185555,"ECCENTRICITY":0.00011094,"INCLINATION":53.1599,"RA_OF_ASC_NODE":257.8367,"ARG_OF_PERICENTER":96.0509,"MEAN_ANOMALY":264.0618,"EPHEMERIS_TYPE":0,"CLASSIFICATION_TYPE":"U","NORAD_CAT_ID":59374,"ELEMENT_SET_NO":999,"REV_AT_EPOCH":10964,"BSTAR":-1.980126e-6,"MEAN_MOTION_DOT":-4.18e-6,"MEAN_MOTION_DDOT":0},{"OBJECT_NAME":"OBJECT BD","OBJECT_ID":"2025-313BD","EPOCH":"2026-03-09T15:06:44.992224","MEAN_MOTION":15.3000236,"ECCENTRICITY":0.00072867,"INCLINATION":97.397,"RA_OF_ASC_NODE":145.285,"ARG_OF_PERICENTER":333.4514,"MEAN_ANOMALY":26.6352,"EPHEMERIS_TYPE":0,"CLASSIFICATION_TYPE":"U","NORAD_CAT_ID":67299,"ELEMENT_SET_NO":999,"REV_AT_EPOCH":1083,"BSTAR":0.0027633805,"MEAN_MOTION_DOT":0.0008101,"MEAN_MOTION_DDOT":0}]
